SatCatId,ObjectName,LaunchYear,OrbitalPeriod,LaunchMass,StatusCode,Inclination,Status,UcsData,OrbitClassEstimated,LaunchSiteCountry,Owner,UseType,Purpose,LaunchVehicleClass,TLE1,TLE2,MeanMotion,Eccentricity,OrbitClass
55766,STARLINK-5599,2023,96.11,290.0,+,70.0,Active,1,LEO,USA,USA,Commercial,Communications,Falcon,1 55766U 23028AB  24173.55695091  .00001013  00000+0  92714-4 0  9992,2 55766  70.0001   3.1934 0003128 271.5946  88.4855 14.98330951 72748,14.98330951,0.0003128,LEO
55767,STARLINK-5606,2023,96.11,290.0,+,70.0,Active,1,LEO,USA,USA,Commercial,Communications,Falcon,1 55767U 23028AC  24173.58182899  .00000247  00000+0  28512-4 0  9996,2 55767  70.0003   3.2833 0002635 261.9966  98.0894 14.98328405 72748,14.98328405,0.0002635,LEO
55768,STARLINK-5583,2023,96.11,290.0,+,70.0,Active,1,LEO,USA,USA,Commercial,Communications,Falcon,1 55768U 23028AD  24173.56513331 -.00000039  00000+0  44883-5 0  9994,2 55768  69.9999   3.2215 0003033 269.5025  90.5787 14.98333491 72746,14.98333491,0.0003033,LEO
55769,STARLINK-5584,2023,96.11,290.0,+,70.0,Active,1,LEO,USA,USA,Commercial,Communications,Falcon,1 55769U 23028AE  24173.56095951  .00000100  00000+0  16206-4 0  9993,2 55769  70.0003   3.2092 0002975 271.0827  88.9991 14.98332029 72745,14.98332029,0.0002975,LEO
55770,STARLINK-5557,2023,96.11,290.0,+,70.0,Active,1,LEO,USA,USA,Commercial,Communications,Falcon,1 55770U 23028AF  24173.55678523  .00001393  00000+0  12452-3 0  9999,2 55770  70.0002   3.1926 0003070 272.6022  87.4785 14.98332019 72746,14.98332019,0.000307,LEO
55771,STARLINK-5591,2023,96.11,290.0,+,70.0,Active,1,LEO,USA,USA,Commercial,Communications,Falcon,1 55771U 23028AG  24173.81548026  .00000898  00000+0  83011-4 0  9992,2 55771  70.0000   2.4909 0003338 270.0388  90.0389 14.98329472 72785,14.98329472,0.0003338,LEO
55772,STARLINK-5835,2023,96.11,290.0,+,70.0,Active,1,LEO,USA,USA,Commercial,Communications,Falcon,1 55772U 23028AH  24173.59866758  .00000298  00000+0  32797-4 0  9992,2 55772  70.0003   2.9359 0002845 270.7984  89.2850 14.98328902 72751,14.98328902,0.0002845,LEO
55773,STARLINK-5833,2023,96.11,290.0,+,70.0,Active,1,LEO,USA,USA,Commercial,Communications,Falcon,1 55773U 23028AJ  24173.81564422  .00000459  00000+0  46295-4 0  9998,2 55773  70.0002   2.4920 0003115 271.2430  88.8372 14.98327716 72782,14.98327716,0.0003115,LEO
55774,STARLINK-5812,2023,96.11,290.0,+,70.0,Active,1,LEO,USA,USA,Commercial,Communications,Falcon,1 55774U 23028AK  24173.61102464 -.00000029  00000+0  53817-5 0  9994,2 55774  70.0001   2.9812 0003035 268.4855  91.5956 14.98327933 72754,14.98327933,0.0003035,LEO
55775,STARLINK-5809,2023,96.11,290.0,+,70.0,Active,1,LEO,USA,USA,Commercial,Communications,Falcon,1 55775U 23028AL  24173.60684995  .00000319  00000+0  34511-4 0  9998,2 55775  70.0001   2.9659 0003075 270.5358  89.5449 14.98327578 72759,14.98327578,0.0003075,LEO
55776,STARLINK-5810,2023,96.11,290.0,+,70.0,Active,1,LEO,USA,USA,Commercial,Communications,Falcon,1 55776U 23028AM  24173.58597823  .00000132  00000+0  18851-4 0  9991,2 55776  70.0000   2.8924 0003043 269.8612  90.2198 14.98328634 72756,14.98328634,0.0003043,LEO
55777,STARLINK-5814,2023,96.11,290.0,+,70.0,Active,1,LEO,USA,USA,Commercial,Communications,Falcon,1 55777U 23028AN  24173.59849998  .00000546  00000+0  53519-4 0  9995,2 55777  70.0000   2.9361 0003107 269.8268  90.2535 14.98331078 72752,14.98331078,0.0003107,LEO
55778,STARLINK-5816,2023,96.11,290.0,+,70.0,Active,1,LEO,USA,USA,Commercial,Communications,Falcon,1 55778U 23028AP  24173.59432614  .00000855  00000+0  79454-4 0  9998,2 55778  70.0006   2.9232 0003005 268.5388  91.5427 14.98330707 72754,14.98330707,0.0003005,LEO
55779,STARLINK-5817,2023,96.11,290.0,+,70.0,Active,1,LEO,USA,USA,Commercial,Communications,Falcon,1 55779U 23028AQ  24173.56488412  .00000212  00000+0  25584-4 0  9995,2 55779  70.0001 342.9398 0003112 268.1150  91.9653 14.98330238 73241,14.98330238,0.0003112,LEO
55780,STARLINK-5819,2023,96.11,290.0,+,70.0,Active,1,LEO,USA,USA,Commercial,Communications,Falcon,1 55780U 23028AR  24173.59015494  .00000713  00000+0  67523-4 0  9991,2 55780  70.0003   2.9063 0002952 268.3945  91.6876 14.98327575 72751,14.98327575,0.0002952,LEO
55781,STARLINK-5820,2023,96.11,290.0,+,70.0,Active,1,LEO,USA,USA,Commercial,Communications,Falcon,1 55781U 23028AS  24173.60267764  .00001164  00000+0  10534-3 0  9993,2 55781  70.0000   2.9855 0003136 268.1303  91.9497 14.98329756 72754,14.98329756,0.0003136,LEO
55782,STARLINK-5826,2023,96.11,290.0,+,70.0,Active,1,LEO,USA,USA,Commercial,Communications,Falcon,1 55782U 23028AT  24173.56090242  .00000418  00000+0  42854-4 0  9996,2 55782  70.0003 343.3322 0003051 269.7906  90.2903 14.98331551 73235,14.98331551,0.0003051,LEO
55783,STARLINK-5825,2023,96.11,290.0,+,70.0,Active,1,LEO,USA,USA,Commercial,Communications,Falcon,1 55783U 23028AU  24173.56073686  .00000436  00000+0  44336-4 0  9997,2 55783  70.0001 343.3303 0003042 268.1930  91.8881 14.98327470 73230,14.9832747,0.0003042,LEO
55784,STARLINK-5797,2023,96.11,290.0,+,70.0,Active,1,LEO,USA,USA,Commercial,Communications,Falcon,1 55784U 23028AV  24173.61096148 -.00000964  00000+0 -72996-4 0  9993,2 55784  69.9998 343.1052 0003394 275.6376  84.4396 14.98323466 73240,14.98323466,0.0003394,LEO
55785,STARLINK-5818,2023,96.11,290.0,+,70.0,Active,1,LEO,USA,USA,Commercial,Communications,Falcon,1 55785U 23028AW  24173.55656250  .00000774  00000+0  72690-4 0  9991,2 55785  70.0003 343.3166 0003086 266.6153  93.4653 14.98324791 73237,14.98324791,0.0003086,LEO
55786,STARLINK-5823,2023,96.11,290.0,+,70.0,Active,1,LEO,USA,USA,Commercial,Communications,Falcon,1 55786U 23028AX  24173.87785394 -.00000444  00000+0 -29464-4 0  9996,2 55786  70.0003 342.4300 0002992 264.0580  96.0238 14.98320995 73273,14.98320995,0.0002992,LEO
55787,STARLINK-5811,2023,96.11,290.0,+,70.0,Active,1,LEO,USA,USA,Commercial,Communications,Falcon,1 55787U 23028AY  24173.55238888  .00000947  00000+0  87173-4 0  9990,2 55787  69.9998 343.3014 0003198 268.2695  91.8098 14.98326644 73227,14.98326644,0.0003198,LEO
55788,STARLINK-5804,2023,96.11,290.0,+,70.0,Active,1,LEO,USA,USA,Commercial,Communications,Falcon,1 55788U 23028AZ  24173.61498094  .00000330  00000+0  35402-4 0  9999,2 55788  70.0005 343.1195 0002934 273.0268  87.0555 14.98335947 73248,14.98335947,0.0002934,LEO
55789,STARLINK-5815,2023,96.11,290.0,+,70.0,Active,1,LEO,USA,USA,Commercial,Communications,Falcon,1 55789U 23028BA  24173.85696745  .00000325  00000+0  34994-4 0  9998,2 55789  70.0003 342.3572 0002968 268.4924  91.5895 14.98331872 73274,14.98331872,0.0002968,LEO
55790,STARLINK-5813,2023,96.11,290.0,+,70.0,Active,1,LEO,USA,USA,Commercial,Communications,Falcon,1 55790U 23028BB  24173.59426825  .00000956  00000+0  87949-4 0  9999,2 55790  69.9999 343.0465 0003246 265.6399  94.4389 14.98322252 73240,14.98322252,0.0003246,LEO
55791,STARLINK-5807,2023,96.11,290.0,+,70.0,Active,1,LEO,USA,USA,Commercial,Communications,Falcon,1 55791U 23028BC  24173.87366429  .00000275  00000+0  30800-4 0  9992,2 55791  70.0003 342.4167 0003073 269.2838  90.7969 14.98331311 73270,14.98331311,0.0003073,LEO
55796,ONEWEB-0530,2023,109.03,-1.0,+,87.92,Active,0,LEO,USA,UK,Unknown,Unknown,Unknown,1 55796U 23029A   24173.71918702  .00000126  00000+0  27781-3 0  9996,2 55796  87.9213  58.8160 0001503  96.6739 263.4565 13.20772241 66092,13.20772241,0.0001503,LEO
55797,ONEWEB-0534,2023,109.03,-1.0,+,87.92,Active,0,LEO,USA,UK,Unknown,Unknown,Unknown,1 55797U 23029B   24173.70655742  .00000131  00000+0  28908-3 0  9996,2 55797  87.9212  58.8256 0002056  84.0801 276.0567 13.20772780 66071,13.2077278,0.0002056,LEO
55798,ONEWEB-0556,2023,109.03,-1.0,+,87.92,Active,0,LEO,USA,UK,Unknown,Unknown,Unknown,1 55798U 23029C   24173.18257484  .00000103  00000+0  22190-3 0  9996,2 55798  87.9217  58.9232 0002308 104.0641 256.0749 13.20767703 65312,13.20767703,0.0002308,LEO
55799,ONEWEB-0562,2023,109.03,-1.0,+,87.92,Active,0,LEO,USA,UK,Unknown,Unknown,Unknown,1 55799U 23029D   24173.24570626  .00000130  00000+0  28888-3 0  9990,2 55799  87.9214  58.9014 0001770 115.6680 244.4636 13.20771575 65320,13.20771575,0.000177,LEO
55800,ONEWEB-0563,2023,109.03,-1.0,+,87.92,Active,0,LEO,USA,UK,Unknown,Unknown,Unknown,1 55800U 23029E   24173.61817568  .00000059  00000+0  11212-3 0  9996,2 55800  87.9213  58.8423 0002068  88.7396 271.3974 13.20771701 65369,13.20771701,0.0002068,LEO
55801,ONEWEB-0564,2023,109.03,148.0,+,87.92,Active,1,LEO,USA,UK,Commercial,Communications,Falcon,1 55801U 23029F   24173.76338234  .00000080  00000+0  16603-3 0  9994,2 55801  87.9214  58.7988 0001504  89.0418 271.0888 13.20773515 66108,13.20773515,0.0001504,LEO
55802,ONEWEB-0638,2023,109.55,148.0,+,87.9,Active,1,LEO,USA,UK,Commercial,Communications,Falcon,1 55802U 23029G   24173.22940619 -.00000030  00000+0 -11460-3 0  9995,2 55802  87.8969  74.1894 0002458  91.2160 268.9251 13.14504766 64022,13.14504766,0.0002458,LEO
55803,ONEWEB-0639,2023,109.11,148.0,+,87.92,Active,1,LEO,USA,UK,Commercial,Communications,Falcon,1 55803U 23029H   24173.31356460  .00000049  00000+0  89014-4 0  9990,2 55803  87.9158  89.4228 0003394  67.9412 292.2081 13.19728036 63162,13.19728036,0.0003394,LEO
55804,ONEWEB-0640,2023,109.55,148.0,+,87.9,Active,1,LEO,USA,UK,Commercial,Communications,Falcon,1 55804U 23029J   24173.23892308  .00000178  00000+0  44472-3 0  9999,2 55804  87.8964  74.1835 0002717  89.8981 270.2460 13.14503769 64048,13.14503769,0.0002717,LEO
55805,ONEWEB-0641,2023,109.11,148.0,+,87.92,Active,1,LEO,USA,UK,Commercial,Communications,Falcon,1 55805U 23029K   24173.30884296  .00000054  00000+0  10224-3 0  9996,2 55805  87.9155  89.4059 0002272  74.4881 285.6503 13.19726040 63179,13.1972604,0.0002272,LEO
55806,ONEWEB-0642,2023,109.11,148.0,+,87.92,Active,1,LEO,USA,UK,Commercial,Communications,Falcon,1 55806U 23029L   24173.30409823  .00000060  00000+0  11843-3 0  9991,2 55806  87.9157  89.4295 0002976  64.2957 295.8483 13.19727502 63169,13.19727502,0.0002976,LEO
